COMMENT,ORIGINATOR,NORAD_CAT_ID,OBJECT_NAME,OBJECT_TYPE,CLASSIFICATION_TYPE,INTLDES,EPOCH,EPOCH_MICROSECONDS,MEAN_MOTION,ECCENTRICITY,INCLINATION,RA_OF_ASC_NODE,ARG_OF_PERICENTER,MEAN_ANOMALY,EPHEMERIS_TYPE,ELEMENT_SET_NO,REV_AT_EPOCH,BSTAR,MEAN_MOTION_DOT,MEAN_MOTION_DDOT,FILE,TLE_LINE0,TLE_LINE1,TLE_LINE2,OBJECT_ID,OBJECT_NUMBER,SEMIMAJOR_AXIS,PERIOD,APOGEE,PERIGEE,DECAYED,date
GENERATED VIA SPACETRACK.ORG API,18 SPCS,48894,SPACEBEE-107,PAYLOAD,U,21059R,2023/3/23 20:15,929984,15.26707311,0.0008244,97.5852,218.5608,213.1267,146.9456,0,999,9637,0.0021567,0.00057002,0,3868607,0 SPACEBEE-107,1 48894U 21059R   23082.84411956  .00057002  00000-0  21567-2 0  9990,2 48894  97.5852 218.5608 0008244 213.1267 146.9456 15.26707311 96374,2021-059R,48894,6863.8,94.321,491.324,480.007,0,
GENERATED VIA SPACETRACK.ORG API,18 SPCS,48894,SPACEBEE-107,PAYLOAD,U,21059R,2023/3/24 4:07,895136,15.26789464,0.0008258,97.5853,218.8939,211.6421,148.4322,0,999,9642,0.0045429,0.0012149,0,3868963,0 SPACEBEE-107,1 48894U 21059R   23083.17182749  .00121490  00000-0  45429-2 0  9998,2 48894  97.5853 218.8939 0008258 211.6421 148.4322 15.26789464 96429,2021-059R,48894,6863.554,94.316,491.087,479.751,0,
GENERATED VIA SPACETRACK.ORG API,18 SPCS,48894,SPACEBEE-107,PAYLOAD,U,21059R,2023/3/24 8:50,860544,15.26819733,0.0008231,97.5854,219.0935,210.8161,149.2595,0,999,9645,0.0066706,0.00179987,0,3869846,0 SPACEBEE-107,1 48894U 21059R   23083.36844746  .00179987  00000-0  66706-2 0  9996,2 48894  97.5854 219.0935 0008231 210.8161 149.2595 15.26819733 96459,2021-059R,48894,6863.464,94.314,490.978,479.679,0,
GENERATED VIA SPACETRACK.ORG API,18 SPCS,48894,SPACEBEE-107,PAYLOAD,U,21059R,2023/3/24 19:51,255040,15.26829188,0.0008202,97.5855,219.56,209.5101,150.5675,0,999,9652,0.0016369,0.00043325,0,3869929,0 SPACEBEE-107,1 48894U 21059R   23083.82721360  .00043325  00000-0  16369-2 0  9999,2 48894  97.5855 219.5600 0008202 209.5101 150.5675 15.26829188 96528,2021-059R,48894,6863.435,94.313,490.93,479.671,0,
GENERATED VIA SPACETRACK.ORG API,18 SPCS,48894,SPACEBEE-107,PAYLOAD,U,21059R,2023/3/24 21:25,669120,15.26835054,0.0008158,97.5854,219.6267,209.3833,150.6948,0,999,9653,0.0016018,0.00042396,0,3870109,0 SPACEBEE-107,1 48894U 21059R   23083.89275080  .00042396  00000-0  16018-2 0  9997,2 48894  97.5854 219.6267 0008158 209.3833 150.6948 15.26835054 96531,2021-059R,48894,6863.418,94.313,490.882,479.683,0,
GENERATED VIA SPACETRACK.ORG API,18 SPCS,48894,SPACEBEE-107,PAYLOAD,U,21059R,2023/3/25 22:35,37120,15.26929314,0.0008229,97.5851,220.6919,206.5415,153.5403,0,999,9669,0.0016858,0.00044766,0,3871104,0 SPACEBEE-107,1 48894U 21059R   23084.94130830  .00044766  00000-0  16858-2 0  9992,2 48894  97.5851 220.6919 0008229 206.5415 153.5403 15.26929314 96696,2021-059R,48894,6863.135,94.307,490.648,479.353,0,
GENERATED VIA SPACETRACK.ORG API,18 SPCS,48894,SPACEBEE-107,PAYLOAD,U,21059R,2023/3/26 3:18,63712,15.26944762,0.0008252,97.5853,220.8915,205.7732,154.3096,0,999,9672,0.0016203,0.00043034,0,3871222,0 SPACEBEE-107,1 48894U 21059R   23085.13790583  .00043034  00000-0  16203-2 0  9992,2 48894  97.5853 220.8915 0008252 205.7732 154.3096 15.26944762 96720,2021-059R,48894,6863.089,94.306,490.617,479.29,0,
GENERATED VIA SPACETRACK.ORG API,18 SPCS,48894,SPACEBEE-107,PAYLOAD,U,21059R,2023/3/26 22:10,592416,15.27004789,0.0008221,97.5853,221.6907,203.0714,157.0156,0,999,9684,0.001436,0.00038175,0,3871964,0 SPACEBEE-107,1 48894U 21059R   23085.92427769  .00038175  00000-0  14360-2 0  9994,2 48894  97.5853 221.6907 0008221 203.0714 157.0156 15.27004789 96844,2021-059R,48894,6862.909,94.302,490.416,479.132,0,
GENERATED VIA SPACETRACK.ORG API,18 SPCS,48894,SPACEBEE-107,PAYLOAD,U,21059R,2023/3/27 9:11,369184,15.27044251,0.0008227,97.5852,222.1569,201.4979,158.5915,0,999,9691,0.001508,0.00040151,0,3872389,0 SPACEBEE-107,1 48894U 21059R   23086.38297881  .00040151  00000-0  15080-2 0  9992,2 48894  97.5852 222.1569 0008227 201.4979 158.5915 15.27044251 96919,2021-059R,48894,6862.791,94.3,490.302,479.01,0,
GENERATED VIA SPACETRACK.ORG API,18 SPCS,48894,SPACEBEE-107,PAYLOAD,U,21059R,2023/3/27 9:11,369184,15.27044251,0.0008227,97.5852,222.1569,201.4979,158.5915,0,999,9691,0.001508,0.00040151,0,3872569,0 SPACEBEE-107,1 48894U 21059R   23086.38297881  .00040151  00000-0  15080-2 0  9992,2 48894  97.5852 222.1569 0008227 201.4979 158.5915 15.27044251 96919,2021-059R,48894,6862.791,94.3,490.302,479.01,0,
GENERATED VIA SPACETRACK.ORG API,18 SPCS,48894,SPACEBEE-107,PAYLOAD,U,21059R,2023/3/27 21:46,682560,15.27085823,0.0008239,97.5853,222.6897,199.5699,160.5224,0,999,9699,0.0014513,0.0003868,0,3872915,0 SPACEBEE-107,1 48894U 21059R   23086.90719540  .00038680  00000-0  14513-2 0  9995,2 48894  97.5853 222.6897 0008239 199.5699 160.5224 15.27085823 96992,2021-059R,48894,6862.666,94.297,490.185,478.877,0,
GENERATED VIA SPACETRACK.ORG API,18 SPCS,48894,SPACEBEE-107,PAYLOAD,U,21059R,2023/3/28 8:46,390048,15.27124811,0.000822,97.5851,223.1559,198.0261,162.0687,0,999,9706,0.0015211,0.00040602,0,3873565,0 SPACEBEE-107,1 48894U 21059R   23087.36587257  .00040602  00000-0  15211-2 0  9997,2 48894  97.5851 223.1559 0008220 198.0261 162.0687 15.27124811 97060,2021-059R,48894,6862.549,94.295,490.055,478.773,0,
GENERATED VIA SPACETRACK.ORG API,18 SPCS,48894,SPACEBEE-107,PAYLOAD,U,21059R,2023/3/28 21:21,184864,15.27173822,0.0008206,97.5849,223.6886,196.3447,163.7528,0,999,9714,0.0016409,0.00043889,0,3873713,0 SPACEBEE-107,1 48894U 21059R   23087.89006001  .00043889  00000-0  16409-2 0  9998,2 48894  97.5849 223.6886 0008206 196.3447 163.7528 15.27173822 97143,2021-059R,48894,6862.403,94.292,489.899,478.636,0,
GENERATED VIA SPACETRACK.ORG API,18 SPCS,48894,SPACEBEE-107,PAYLOAD,U,21059R,2023/3/28 21:21,184864,15.27173822,0.0008206,97.5849,223.6886,196.3447,163.7528,0,999,9714,0.0016409,0.00043889,0,3873921,0 SPACEBEE-107,1 48894U 21059R   23087.89006001  .00043889  00000-0  16409-2 0  9998,2 48894  97.5849 223.6886 0008206 196.3447 163.7528 15.27173822 97143,2021-059R,48894,6862.403,94.292,489.899,478.636,0,
GENERATED VIA SPACETRACK.ORG API,18 SPCS,48894,SPACEBEE-107,PAYLOAD,U,21059R,2023/3/29 8:22,641632,15.2721475,0.0008199,97.5848,224.1549,194.8832,165.2166,0,999,9721,0.0016902,0.00045275,0,3874492,0 SPACEBEE-107,1 48894U 21059R   23088.34871113  .00045275  00000-0  16902-2 0  9992,2 48894  97.5848 224.1549 0008199 194.8832 165.2166 15.27214750 97215,2021-059R,48894,6862.28,94.289,489.771,478.519,0,
GENERATED VIA SPACETRACK.ORG API,18 SPCS,48894,SPACEBEE-107,PAYLOAD,U,21059R,2023/3/29 16:13,314464,15.2724435,0.000821,97.5847,224.488,194.0354,166.0658,0,999,9726,0.0017345,0.00046513,0,3874790,0 SPACEBEE-107,1 48894U 21059R   23088.67631151  .00046513  00000-0  17345-2 0  9992,2 48894  97.5847 224.4880 0008210 194.0354 166.0658 15.27244350 97269,2021-059R,48894,6862.191,94.287,489.69,478.422,0,
GENERATED VIA SPACETRACK.ORG API,18 SPCS,48894,SPACEBEE-107,PAYLOAD,U,21059R,2023/3/29 22:31,616064,15.27269351,0.0008194,97.5847,224.7544,193.5047,166.5973,0,999,9730,0.0017258,0.00046313,0,3874923,0 SPACEBEE-107,1 48894U 21059R   23088.93838676  .00046313  00000-0  17258-2 0  9993,2 48894  97.5847 224.7544 0008194 193.5047 166.5973 15.27269351 97301,2021-059R,48894,6862.116,94.286,489.604,478.359,0,
GENERATED VIA SPACETRACK.ORG API,18 SPCS,48894,SPACEBEE-107,PAYLOAD,U,21059R,2023/3/30 14:14,318752,15.27333073,0.0008165,97.5847,225.4205,191.2839,168.8218,0,999,9740,0.0018665,0.00050217,0,3875726,0 SPACEBEE-107,1 48894U 21059R   23089.59355693  .00050217  00000-0  18665-2 0  9990,2 48894  97.5847 225.4205 0008165 191.2839 168.8218 15.27333073 97406,2021-059R,48894,6861.926,94.282,489.393,478.188,0,
GENERATED VIA SPACETRACK.ORG API,18 SPCS,48894,SPACEBEE-107,PAYLOAD,U,21059R,2023/3/31 1:15,541056,15.27381622,0.000807,97.5848,225.887,190.0662,170.0416,0,999,9747,0.0019877,0.00053584,0,3875818,0 SPACEBEE-107,1 48894U 21059R   23090.05215904  .00053584  00000-0  19877-2 0  9999,2 48894  97.5848 225.8870 0008070 190.0662 170.0416 15.27381622 97470,2021-059R,48894,6861.78,94.279,489.183,478.108,0,
GENERATED VIA SPACETRACK.ORG API,18 SPCS,48894,SPACEBEE-107,PAYLOAD,U,21059R,2023/4/1 8:41,176672,15.27507335,0.0008033,97.5853,227.2196,185.3627,174.7527,0,999,9767,0.0017469,0.00047223,0,3877059,0 SPACEBEE-107,1 48894U 21059R   23091.36237473  .00047223  00000-0  17469-2 0  9997,2 48894  97.5853 227.2196 0008033 185.3627 174.7527 15.27507335 97677,2021-059R,48894,6861.404,94.271,488.78,477.757,0,
GENERATED VIA SPACETRACK.ORG API,18 SPCS,48894,SPACEBEE-107,PAYLOAD,U,21059R,2023/4/1 8:41,176672,15.27507335,0.0008033,97.5853,227.2196,185.3627,174.7527,0,999,9767,0.0017469,0.00047223,0,3877270,0 SPACEBEE-107,1 48894U 21059R   23091.36237473  .00047223  00000-0  17469-2 0  9997,2 48894  97.5853 227.2196 0008033 185.3627 174.7527 15.27507335 97677,2021-059R,48894,6861.404,94.271,488.78,477.757,0,
GENERATED VIA SPACETRACK.ORG API,18 SPCS,48894,SPACEBEE-107,PAYLOAD,U,21059R,2023/4/1 19:42,75520,15.27545147,0.0008028,97.5852,227.686,184.1586,175.9588,0,999,9774,0.0016348,0.00044221,0,3877516,0 SPACEBEE-107,1 48894U 21059R   23091.82092680  .00044221  00000-0  16348-2 0  9997,2 48894  97.5852 227.6860 0008028 184.1586 175.9588 15.27545147 97744,2021-059R,48894,6861.29,94.269,488.664,477.647,0,
GENERATED VIA SPACETRACK.ORG API,18 SPCS,48894,SPACEBEE-107,PAYLOAD,U,21059R,2023/4/2 14:34,771840,15.27612757,0.0008021,97.5853,228.4857,181.6245,178.4969,0,999,9786,0.0016518,0.00044776,0,3878126,0 SPACEBEE-107,1 48894U 21059R   23092.60698810  .00044776  00000-0  16518-2 0  9995,2 48894  97.5853 228.4857 0008021 181.6245 178.4969 15.27612757 97863,2021-059R,48894,6861.088,94.265,488.456,477.45,0,
